NORAD_CAT_ID,OBJECT_NAME,OBJECT_TYPE,EPOCH,MEAN_MOTION,ECCENTRICITY,INCLINATION,RA_OF_ASC_NODE,ARG_OF_PERICENTER,MEAN_ANOMALY,BSTAR,MEAN_MOTION_DOT,MEAN_MOTION_DDOT,TLE_LINE0,TLE_LINE1,TLE_LINE2,SEMIMAJOR_AXIS,PERIOD,APOGEE,PERIGEE,DECAYED
54064.0,STARLINK-5172,PAYLOAD,2023-11-29 12:25:31,15.08838221,0.0001676,53.2184,70.5743,99.1897,260.9285,0.00027802,4.139e-05,0.0,0 STARLINK-5172,1 54064U 22136P   23333.51772973  .00004139  00000-0  27802-3 0  9997,2 54064  53.2184  70.5743 0001676  99.1897 260.9285 15.08838221 62472,6917.886,95.438,540.91,538.591,0.0
54064.0,STARLINK-5172,PAYLOAD,2023-11-29 14:00:54,15.08848542,0.0001513,53.2182,70.2762,80.7251,279.3912,0.00042441,6.475e-05,0.0,0 STARLINK-5172,1 54064U 22136P   23333.58396690  .00006475  00000-0  42441-3 0  9993,2 54064  53.2182  70.2762 0001513  80.7251 279.3912 15.08848542 62005,6917.854,95.437,540.766,538.673,0.0
54064.0,STARLINK-5172,PAYLOAD,2023-11-30 12:16:18,15.08843368,0.000171,53.2185,66.1158,65.1492,294.9677,0.00021328,3.108e-05,0.0,0 STARLINK-5172,1 54064U 22136P   23334.51133063  .00003108  00000-0  21328-3 0  9991,2 54064  53.2185  66.1158 0001710  65.1492 294.9677 15.08843368 62624,6917.87,95.437,540.918,538.552,0.0
54064.0,STARLINK-5172,PAYLOAD,2023-12-01 12:07:05,15.08856532,0.000151,53.2178,61.6572,69.3516,290.7638,0.00039039,5.933e-05,0.0,0 STARLINK-5172,1 54064U 22136P   23335.50492395  .00005933  00000-0  39039-3 0  9993,2 54064  53.2178  61.6572 0001510  69.3516 290.7638 15.08856532 62298,6917.83,95.437,540.739,538.65,0.0
54064.0,STARLINK-5172,PAYLOAD,2023-12-02 11:57:51,15.08820555,0.0001126,53.2179,57.1973,122.7558,237.3543,-0.0011318,-0.00018245,0.0,0 STARLINK-5172,1 54064U 22136P   23336.49850912 -.00018245  00000-0 -11318-2 0  9996,2 54064  53.2179  57.1973 0001126 122.7558 237.3543 15.08820555 62925,6917.94,95.439,540.584,539.026,0.0
54064.0,STARLINK-5172,PAYLOAD,2023-12-03 11:48:41,15.08802066,0.0001041,53.2182,52.7307,83.207,276.9041,-0.00044342,-7.33e-05,0.0,0 STARLINK-5172,1 54064U 22136P   23337.49214642 -.00007330  00000-0 -44342-3 0  9998,2 54064  53.2182  52.7307 0001041  83.2070 276.9041 15.08802066 63073,6917.996,95.44,540.582,539.141,0.0
54064.0,STARLINK-5172,PAYLOAD,2023-12-04 10:04:05,15.08841443,0.0001218,53.2183,48.5684,94.8638,265.2493,0.0010498,0.0001646,0.0,0 STARLINK-5172,1 54064U 22136P   23338.41951347  .00016460  00000-0  10498-2 0  9997,2 54064  53.2183  48.5684 0001218  94.8638 265.2493 15.08841443 63219,6917.876,95.437,540.584,538.898,0.0
54064.0,STARLINK-5172,PAYLOAD,2023-12-05 11:30:14,15.0886627,0.0001281,53.2189,43.8168,90.8483,269.2656,0.00048064,7.375e-05,0.0,0 STARLINK-5172,1 54064U 22136P   23339.47933916  .00007375  00000-0  48064-3 0  9992,2 54064  53.2189  43.8168 0001281  90.8483 269.2656 15.08866270 63371,6917.8,95.436,540.551,538.779,0.0
54064.0,STARLINK-5172,PAYLOAD,2023-12-06 03:24:05,15.08857103,0.0001452,53.2188,40.8434,70.1609,289.9539,-9.1703e-06,-4.34e-06,0.0,0 STARLINK-5172,1 54064U 22136P   23340.14173386 -.00000434  00000-0 -91703-5 0  9996,2 54064  53.2188  40.8434 0001452  70.1609 289.9539 15.08857103 63479,6917.828,95.436,540.698,538.689,0.0
54064.0,STARLINK-5172,PAYLOAD,2023-12-06 12:56:24,15.08852055,0.0001167,53.2184,39.0543,93.0352,267.0774,-7.8995e-05,-1.545e-05,0.0,0 STARLINK-5172,1 54064U 22136P   23340.53917155 -.00001545  00000-0 -78995-4 0  9990,2 54064  53.2184  39.0543 0001167  93.0352 267.0774 15.08852055 63051,6917.844,95.437,540.516,538.901,0.0
54064.0,STARLINK-5172,PAYLOAD,2023-12-07 11:11:48,15.08840261,0.0001522,53.2193,34.8908,70.7436,289.3721,-0.00012823,-2.328e-05,0.0,0 STARLINK-5172,1 54064U 22136P   23341.46653769 -.00002328  00000-0 -12823-3 0  9998,2 54064  53.2193  34.8908 0001522  70.7436 289.3721 15.08840261 63672,6917.88,95.438,540.797,538.692,0.0
54064.0,STARLINK-5172,PAYLOAD,2023-12-07 12:47:11,15.08842177,0.0001467,53.2195,34.5932,78.3749,281.7408,-9.341e-05,-1.774e-05,0.0,0 STARLINK-5172,1 54064U 22136P   23341.53277642 -.00001774  00000-0 -93410-4 0  9994,2 54064  53.2195  34.5932 0001467  78.3749 281.7408 15.08842177 63202,6917.874,95.437,540.754,538.724,0.0
54064.0,STARLINK-5172,PAYLOAD,2023-12-08 12:37:59,15.08844206,0.0001354,53.2186,30.1313,88.8577,271.257,0.00012641,1.725e-05,0.0,0 STARLINK-5172,1 54064U 22136P   23342.52637771  .00001725  00000-0  12641-3 0  9997,2 54064  53.2186  30.1313 0001354  88.8577 271.2570 15.08844206 63352,6917.868,95.437,540.669,538.796,0.0
54064.0,STARLINK-5172,PAYLOAD,2023-12-09 09:18:00,15.08825371,0.0001671,53.2198,26.2585,68.4416,291.6754,0.00039255,5.962e-05,0.0,0 STARLINK-5172,1 54064U 22136P   23343.38751074  .00005962  00000-0  39255-3 0  9992,2 54064  53.2198  26.2585 0001671  68.4416 291.6754 15.08825371 63969,6917.925,95.438,540.946,538.634,0.0
54064.0,STARLINK-5172,PAYLOAD,2023-12-09 12:28:46,15.08836673,0.0001714,53.2195,25.6654,69.3768,290.7408,6.2265e-05,7.03e-06,0.0,0 STARLINK-5172,1 54064U 22136P   23343.51998568  .00000703  00000-0  62265-4 0  9994,2 54064  53.2195  25.6654 0001714  69.3768 290.7408 15.08836673 63507,6917.891,95.438,540.941,538.57,0.0
54064.0,STARLINK-5172,PAYLOAD,2023-12-11 07:24:11,15.08844322,0.0001358,53.2179,17.6418,86.8857,273.229,0.00012778,1.747e-05,0.0,0 STARLINK-5172,1 54064U 22136P   23345.30846129  .00001747  00000-0  12778-3 0  9990,2 54064  53.2179  17.6418 0001358  86.8857 273.2290 15.08844322 64253,6917.867,95.437,540.672,538.793,0.0
54064.0,STARLINK-5172,PAYLOAD,2023-12-12 08:50:20,15.08853621,0.0001302,53.2188,12.8856,85.4829,274.6312,0.00023211,3.409e-05,0.0,0 STARLINK-5172,1 54064U 22136P   23346.36828865  .00003409  00000-0  23211-3 0  9995,2 54064  53.2188  12.8856 0001302  85.4829 274.6312 15.08853621 64419,6917.839,95.437,540.604,538.803,0.0
54064.0,STARLINK-5172,PAYLOAD,2023-12-13 08:41:08,15.08837555,0.0001517,53.2189,8.4246,95.1592,264.9574,5.6158e-05,6.06e-06,0.0,0 STARLINK-5172,1 54064U 22136P   23347.36190302  .00000606  00000-0  56158-4 0  9997,2 54064  53.2189   8.4246 0001517  95.1592 264.9574 15.08837555 64563,6917.888,95.438,540.802,538.703,0.0
54064.0,STARLINK-5172,PAYLOAD,2023-12-14 06:56:32,15.08841225,0.0001479,53.2183,4.2602,84.718,275.3981,-4.423e-05,-9.92e-06,0.0,0 STARLINK-5172,1 54064U 22136P   23348.28926555 -.00000992  00000-0 -44230-4 0  9994,2 54064  53.2183   4.2602 0001479  84.7180 275.3981 15.08841225 64221,6917.877,95.437,540.765,538.718,0.0
54064.0,STARLINK-5172,PAYLOAD,2023-12-15 05:11:56,15.08837703,0.0001641,53.2188,0.0995,95.1346,264.9833,0.00015271,2.143e-05,0.0,0 STARLINK-5172,1 54064U 22136P   23349.21662456  .00002143  00000-0  15271-3 0  9995,2 54064  53.2188   0.0995 0001641  95.1346 264.9833 15.08837703 64840,6917.887,95.438,540.888,538.617,0.0
54064.0,STARLINK-5172,PAYLOAD,2023-12-15 08:22:42,15.08842074,0.0001669,53.2179,359.5052,90.9808,269.1376,0.0002088,3.037e-05,0.0,0 STARLINK-5172,1 54064U 22136P   23349.34910316  .00003037  00000-0  20880-3 0  9995,2 54064  53.2179 359.5052 0001669  90.9808 269.1376 15.08842074 64387,6917.874,95.437,540.894,538.584,0.0
54064.0,STARLINK-5172,PAYLOAD,2023-12-16 08:13:30,15.08835316,0.000166,53.2186,355.0447,92.9079,267.2103,5.7544e-05,6.28e-06,0.0,0 STARLINK-5172,1 54064U 22136P   23350.34271149  .00000628  00000-0  57544-4 0  9992,2 54064  53.2186 355.0447 0001660  92.9079 267.2103 15.08835316 65016,6917.895,95.438,540.908,538.611,0.0
54064.0,STARLINK-5172,PAYLOAD,2023-12-17 06:28:54,15.0884181,0.0001666,53.2183,350.8806,83.2456,276.8725,5.5322e-05,5.93e-06,0.0,0 STARLINK-5172,1 54064U 22136P   23351.27007267  .00000593  00000-0  55322-4 0  9996,2 54064  53.2183 350.8806 0001666  83.2456 276.8725 15.08841810 64676,6917.875,95.437,540.892,538.587,0.0
54064.0,STARLINK-5172,PAYLOAD,2023-12-18 03:08:54,15.08854188,0.0001563,53.2175,347.0214,86.1954,273.9217,0.00038483,5.844e-05,0.0,0 STARLINK-5172,1 54064U 22136P   23352.13118728  .00005844  00000-0  38483-3 0  9999,2 54064  53.2175 347.0214 0001563  86.1954 273.9217 15.08854188 65283,6917.837,95.437,540.783,538.621,0.0
54064.0,STARLINK-5172,PAYLOAD,2023-12-18 06:19:40,15.0886028,0.0001707,53.2175,346.4245,79.4223,280.6961,0.00051623,7.942e-05,0.0,0 STARLINK-5172,1 54064U 22136P   23352.26366557  .00007942  00000-0  51623-3 0  9990,2 54064  53.2175 346.4245 0001707  79.4223 280.6961 15.08860280 64824,6917.818,95.436,540.864,538.503,0.0
54064.0,STARLINK-5172,PAYLOAD,2023-12-19 02:59:41,15.08842025,0.0001485,53.2188,342.555,104.1326,255.9831,9.0282e-06,-1.44e-06,0.0,0 STARLINK-5172,1 54064U 22136P   23353.12478991 -.00000144  00000-0  90282-5 0  9996,2 54064  53.2188 342.5550 0001485 104.1326 255.9831 15.08842025 65433,6917.874,95.437,540.767,538.712,0.0
54064.0,STARLINK-5172,PAYLOAD,2023-12-19 06:10:28,15.08840266,0.0001471,53.2183,341.9611,110.0029,250.1122,-1.1115e-05,-4.65e-06,0.0,0 STARLINK-5172,1 54064U 22136P   23353.25726961 -.00000465  00000-0 -11115-4 0  9997,2 54064  53.2183 341.9611 0001471 110.0029 250.1122 15.08840266 64973,6917.88,95.438,540.762,538.727,0.0
54064.0,STARLINK-5172,PAYLOAD,2023-12-20 04:25:52,15.08837099,0.0001383,53.2182,337.7989,101.1363,258.9785,-3.0192e-05,-7.68e-06,0.0,0 STARLINK-5172,1 54064U 22136P   23354.18463489 -.00000768  00000-0 -30192-4 0  9995,2 54064  53.2182 337.7989 0001383 101.1363 258.9785 15.08837099 65597,6917.889,95.438,540.711,538.798,0.0
54064.0,STARLINK-5172,PAYLOAD,2023-12-21 04:16:39,15.08848908,0.000142,53.2181,333.338,104.1813,255.9337,0.00037596,5.702e-05,0.0,0 STARLINK-5172,1 54064U 22136P   23355.17823300  .00005702  00000-0  37596-3 0  9992,2 54064  53.2181 333.3380 0001420 104.1813 255.9337 15.08848908 65746,6917.853,95.437,540.7,538.736,0.0
54064.0,STARLINK-5172,PAYLOAD,2023-12-22 04:07:26,15.08844088,0.0001804,53.2189,328.8851,120.5195,239.5975,0.00014393,2.004e-05,0.0,0 STARLINK-5172,1 54064U 22136P   23356.17183541  .00002004  00000-0  14393-3 0  9991,2 54064  53.2189 328.8851 0001804 120.5195 239.5975 15.08844088 65894,6917.868,95.437,540.981,538.485,0.0
